KUIPER-00095            
1 65134U 25171C   26001.48078764  .00011932  00000+0  10731-2 0  9997
2 65134  51.8924  85.9056 0004344 263.3089  96.7385 14.96001525 23072
KUIPER-00096            
1 65135U 25171D   26001.48512577  .00009945  00000+0  13304-2 0  9993
2 65135  51.8999  95.2633 0009985 288.5564  71.4313 14.79946276 22941
KUIPER-00097            
1 65136U 25171E   26001.54996267  .00012744  00000+0  16938-2 0  9990
2 65136  51.9028  97.5939 0009606 288.5671  71.4247 14.80002483 22906
KUIPER-00098            
1 65137U 25171F   26001.47962953 -.00002473  00000+0 -29510-3 0  9999
2 65137  51.8999 100.2868 0006825 276.4408  83.5777 14.79942785 22212
KUIPER-00099            
1 65138U 25171G   26001.45671679  .00000458  00000+0  89110-4 0  9992
2 65138  51.9038  90.3626 0001075  15.0249 345.0745 14.79944205 23009
KUIPER-00100            
1 65139U 25171H   26001.48452981 -.00040080  00000+0 -54015-2 0  9990
2 65139  51.9017  87.6369 0000650  97.7273 262.3763 14.78815717 23041
KUIPER-00102            
1 65140U 25171J   26001.55804351  .00000920  00000+0  14964-3 0  9999
2 65140  51.8992  89.9431 0000662 119.6456 240.4573 14.79944618 23016
KUIPER-00103            
1 65141U 25171K   26001.50538483  .00009449  00000+0  12661-2 0  9991
2 65141  51.8989 107.6644 0005338 269.0119  91.0231 14.79948239 22763
